     2.100          NAVIGATION                              RINEX VERSION / TYPE
fic2rin                                 11/07/2016 00:05:10 PGM / RUN BY / DATE
                                                            END OF HEADER
 2 16 11  6 10  0  0.0  .529473647475D-03 -.545696821064D-11  .000000000000D+00
     .108000000000D+03 -.463125000000D+02  .498235039204D-08  .913950268280D+00
    -.235810875893D-05  .160973781021D-01  .957958400249D-05  .515367028809D+04
     .360000000000D+05 -.208616256714D-06  .106938572675D+01  .912696123123D-07
     .944257265637D+00  .192156250000D+03 -.207140246234D+01 -.845820946123D-08
    -.585738684082D-10  .100000000000D+01  .192200000000D+04  .000000000000D+00
     .485000000000D+01  .000000000000D+00 -.200234353542D-07  .108000000000D+03
     .288060000000D+05  .400000000000D+01
 3 16 11  6 10  0  0.0 -.967448577285D-04 -.216004991671D-11  .000000000000D+00
     .200000000000D+01  .768750000000D+01  .469733852015D-08 -.920567713843D+00
     .271946191788D-06  .324175460264D-03  .772625207901D-05  .515358420181D+04
     .360000000000D+05 -.186264514923D-08  .216061222501D+01 -.186264514923D-07
     .959318280828D+00  .230187500000D+03  .825132414054D+00 -.804962101331D-08
     .867893294096D-10  .100000000000D+01  .192200000000D+04  .000000000000D+00
     .240000000000D+01  .000000000000D+00  .186264514923D-08  .200000000000D+01
     .288060000000D+05  .400000000000D+01
 4 16 11  6 10  0  0.0  .141146592796D-04  .295585778076D-11  .000000000000D+00
     .280000000000D+02  .191875000000D+02  .431660837549D-08 -.227591522359D+01
     .118836760521D-05  .837365153711D-02  .798143446445D-05  .515359327316D+04
     .360000000000D+05  .130385160446D-07 -.296326083459D+01  .199303030968D-06
     .966458620127D+00  .227937500000D+03 -.974350647695D+00 -.783639784600D-08
    -.261796619166D-09  .100000000000D+01  .192200000000D+04  .000000000000D+00
     .240000000000D+01  .630000000000D+02 -.419095158577D-08  .280000000000D+02
     .288060000000D+05  .400000000000D+01
 5 16 11  6 10  0  0.0 -.798134133220D-04  .238742359215D-11  .000000000000D+00
     .510000000000D+02  .118125000000D+02  .501306595718D-08 -.290627433397D+01
     .573694705963D-06  .485958973877D-02  .763870775700D-05  .515362407875D+04
     .360000000000D+05 -.372529029846D-08  .214652568149D+01 -.204890966415D-07
     .946326732958D+00  .225593750000D+03  .548148348648D+00 -.817712632442D-08
     .155006456641D-09  .100000000000D+01  .192200000000D+04  .000000000000D+00
     .240000000000D+01  .000000000000D+00 -.107102096081D-07  .510000000000D+02
     .288060000000D+05  .400000000000D+01
 7 16 11  6 10  0  0.0  .413245055825D-03 -.329691829393D-11  .000000000000D+00
     .650000000000D+02  .538437500000D+02  .434910972931D-08 -.209204776939D+00
     .293739140034D-05  .100466649747D-01  .824220478535D-05  .515362664604D+04
     .360000000000D+05  .968575477600D-07 -.200644927705D+01  .139698386192D-06
     .964500410651D+00  .223750000000D+03 -.261553285967D+01 -.813426739632D-08
    -.285726187357D-10  .100000000000D+01  .192200000000D+04  .000000000000D+00
     .240000000000D+01  .000000000000D+00 -.111758708954D-07  .650000000000D+02
     .288060000000D+05  .400000000000D+01
 8 16 11  6 10  0  0.0 -.380049459636D-04 -.136424205266D-11  .000000000000D+00
     .280000000000D+02 -.577187500000D+02  .463447875893D-08 -.292617141693D+01
    -.290200114250D-05  .192083243746D-02  .478327274323D-05  .515377553558D+04
     .360000000000D+05  .335276126862D-07  .570218710527D-01  .726431608200D-07
     .965155227412D+00  .288687500000D+03 -.100873323388D+01 -.817426906255D-08
     .928610108910D-11  .100000000000D+01  .192200000000D+04  .000000000000D+00
     .240000000000D+01  .000000000000D+00  .512227416039D-08  .280000000000D+02
     .288060000000D+05  .400000000000D+01
10 16 11  6 10  0  0.0 -.112746842206D-03 -.204636307899D-11  .000000000000D+00
     .400000000000D+02  .693750000000D+01  .460483466699D-08 -.160611378931D+01
     .391155481339D-06  .186993414536D-02  .812858343124D-05  .515367305374D+04
     .360000000000D+05 -.279396772385D-07  .215674522050D+01 -.577419996262D-07
     .959523658435D+00  .223843750000D+03 -.293264261897D+01 -.793675916931D-08
     .155720772109D-09  .100000000000D+01  .192200000000D+04  .000000000000D+00
     .240000000000D+01  .000000000000D+00  .232830643654D-08  .400000000000D+02
     .288060000000D+05  .400000000000D+01
11 16 11  6 10  0  0.0 -.670132227242D-03 -.216004991671D-11  .000000000000D+00
     .730000000000D+02 -.693750000000D+02  .615025618286D-08 -.124526795087D+00
    -.354088842869D-05  .167776019080D-01  .746548175812D-05  .515368384361D+04
     .360000000000D+05 -.249594449997D-06  .729968210540D+00  .149011611938D-07
     .898434829771D+00  .204281250000D+03  .159577912304D+01 -.910287917146D-08
     .553594488004D-10  .100000000000D+01  .192200000000D+04  .000000000000D+00
     .485000000000D+01  .000000000000D+00 -.121071934700D-07  .730000000000D+02
     .288060000000D+05  .400000000000D+01
12 16 11  6 10  0  0.0  .389467924833D-03  .113686837722D-12  .000000000000D+00
     .102000000000D+03  .364687500000D+02  .408659879467D-08 -.798584466626D+00
     .206939876080D-05  .607381702866D-02  .453181564808D-05  .515363540649D+04
     .360000000000D+05  .987201929092D-07 -.926301922616D+00  .707805156708D-07
     .989965829422D+00  .310593750000D+03  .782181860466D+00 -.807426489697D-08
     .195008122871D-09  .100000000000D+01  .192200000000D+04  .000000000000D+00
     .340000000000D+01  .000000000000D+00 -.125728547573D-07  .102000000000D+03
     .288060000000D+05  .400000000000D+01
13 16 11  6 10  0  0.0 -.534085556865D-04 -.204636307899D-11  .000000000000D+00
     .310000000000D+02  .159062500000D+02  .431017953628D-08  .814142806670D+00
     .795349478722D-06  .401851173956D-02  .796653330326D-05  .515368832397D+04
     .360000000000D+05 -.372529029846D-08 -.296172045207D+01 -.428408384323D-07
     .970937106833D+00  .231281250000D+03  .190670185360D+01 -.796497463031D-08
    -.270011247052D-09  .100000000000D+01  .192200000000D+04  .000000000000D+00
     .240000000000D+01  .000000000000D+00 -.111758708954D-07  .310000000000D+02
     .288060000000D+05  .400000000000D+01
14 16 11  6 10  0  0.0 -.437521375716D-04 -.170530256582D-11  .000000000000D+00
     .410000000000D+02  .128437500000D+02  .445197115675D-08  .215007361040D+01
     .612810254097D-06  .869046861771D-02  .768341124058D-05  .515359562874D+04
     .360000000000D+05  .651925802231D-07 -.299980535768D+01 -.201165676117D-06
     .963441010728D+00  .230437500000D+03 -.194427837178D+01 -.788532845558D-08
    -.221794952936D-09  .100000000000D+01  .192200000000D+04  .000000000000D+00
     .240000000000D+01  .000000000000D+00 -.931322574615D-08  .410000000000D+02
     .288060000000D+05  .400000000000D+01
16 16 11  6 10  0  0.0  .143651850522D-04  .159161572810D-11  .000000000000D+00
     .530000000000D+02  .365312500000D+02  .399516641472D-08 -.274536722103D+01
     .180117785931D-05  .875195604749D-02  .524893403053D-05  .515359311676D+04
     .360000000000D+05 -.122934579849D-06 -.907484379567D+00 -.178813934326D-06
     .990469806163D+00  .296843750000D+03  .382482736238D+00 -.784889836669D-08
     .200722646618D-09  .100000000000D+01  .192200000000D+04  .000000000000D+00
     .240000000000D+01  .000000000000D+00 -.102445483208D-07  .530000000000D+02
     .288060000000D+05  .400000000000D+01
17 16 11  6 10  0  0.0 -.199723523110D-03  .682121026330D-12  .000000000000D+00
     .830000000000D+02 -.708750000000D+02  .413981529707D-08  .253959749716D+01
    -.374019145966D-05  .114092468284D-01  .561401247978D-05  .515377138329D+04
     .360000000000D+05  .447034835815D-07  .111813330388D+00 -.176951289177D-06
     .978320049151D+00  .277375000000D+03 -.191528155654D+01 -.778139555493D-08
    -.985755346381D-10  .100000000000D+01  .192200000000D+04  .000000000000D+00
     .340000000000D+01  .000000000000D+00 -.107102096081D-07  .830000000000D+02
     .288060000000D+05  .400000000000D+01
18 16 11  6 10  0  0.0  .573582947254D-03  .329691829393D-11  .000000000000D+00
     .910000000000D+02  .107500000000D+02  .532593613233D-08 -.215637760089D+01
     .564381480217D-06  .172748917248D-01  .750832259655D-05  .515372112083D+04
     .360000000000D+05  .305473804474D-06  .212191120413D+01 -.596046447754D-07
     .925018732800D+00  .214093750000D+03 -.185295078796D+01 -.807426489697D-08
     .223223583873D-09  .100000000000D+01  .192200000000D+04  .000000000000D+00
     .240000000000D+01  .000000000000D+00 -.111758708954D-07  .910000000000D+02
     .288060000000D+05  .400000000000D+01
19 16 11  6 10  0  0.0 -.520503148437D-03  .682121026330D-12  .000000000000D+00
     .800000000000D+02 -.650625000000D+02  .435482425305D-08 -.588689281592D+00
    -.320002436638D-05  .103408279829D-01  .617280602455D-05  .515363616753D+04
     .360000000000D+05 -.186264514923D-07  .160129648054D+00  .143423676491D-06
     .975473242753D+00  .269156250000D+03  .885514163208D+00 -.816784022333D-08
    -.450018745087D-10  .100000000000D+01  .192200000000D+04  .000000000000D+00
     .240000000000D+01  .000000000000D+00 -.149011611938D-07  .800000000000D+02
     .288060000000D+05  .400000000000D+01
20 16 11  6 10  0  0.0  .444589182734D-03  .193267624127D-11  .000000000000D+00
     .380000000000D+02  .518750000000D+01  .550201489529D-08  .169666615968D+01
     .428408384323D-07  .475337705575D-02  .782310962677D-05  .515359574890D+04
     .360000000000D+05  .447034835815D-07  .207030844246D+01 -.651925802231D-07
     .926294621192D+00  .211937500000D+03  .148298079382D+01 -.845392356842D-08
     .118933525487D-09  .100000000000D+01  .192200000000D+04  .000000000000D+00
     .240000000000D+01  .000000000000D+00 -.838190317154D-08  .380000000000D+02
     .288060000000D+05  .400000000000D+01
